SL-16 R/B               
1 25400U 98043G   25338.09796389  .00000158  00000+0  85258-4 0  9992
2 25400  98.8110 285.8681 0008898 294.7059  65.3193 14.26022314425369
SL-16 R/B               
1 25407U 98045B   25338.14737882  .00000103  00000+0  76104-4 0  9990
2 25407  71.0125  22.4965 0007421 190.2038 169.8936 14.16175637413574
ISS (ZARYA)             
1 25544U 98067A   25337.89837126  .00013627  00000+0  25253-3 0  9992
2 25544  51.6303 186.2514 0003592 201.3576 158.7263 15.49284650541488
CZ-4B R/B               
1 25732U 99025C   25338.14306470  .00000197  00000+0  11628-3 0  9997
2 25732  98.6779  19.6149 0036127 259.4053 166.4282 14.18240579374626
OKEAN-O                 
1 25860U 99039A   25337.73092544  .00001168  00000+0  16084-3 0  9992
2 25860  97.9616  33.5100 0000807  77.9819 282.1484 14.80135686420196
SL-16 R/B               
1 25861U 99039B   25337.73467062  .00001041  00000+0  13931-3 0  9992
2 25861  98.0139  31.8849 0014256 204.2676 155.7866 14.81565116422657
DELTA 2 R/B             
1 25876U 99041E   25337.72048256  .00001816  00000+0  33173-3 0  9990
2 25876  51.7623 324.4495 0504825  65.1848 300.0717 14.11363114349471
HELIOS 1B               
1 25977U 99064A   25338.12450537  .00004482  00000+0  50407-3 0  9992
2 25977  98.1755 232.5346 0002152  54.2268 305.9147 14.87225607671059
TERRA                   
1 25994U 99068A   25337.92023672  .00001004  00000+0  21410-3 0  9997
2 25994  97.9761  29.9277 0003424 115.5396  58.1773 14.60937035381099
SL-16 R/B               
1 26070U 00006B   25338.13801675  .00000316  00000+0  18504-3 0  9993
2 26070  71.0028 298.7435 0018013 320.6162  39.3650 14.15808385335039
TITAN 4B R/B            
1 26474U 00047B   25337.92583222  .00006840  00000+0  43561-3 0  9996
2 26474  67.9897 309.6070 0039643 155.1109 205.1963 15.08677148378464
ENVISAT                 
1 27386U 02009A   25337.86567403  .00000287  00000+0  10687-3 0  9997
2 27386  98.3586 288.8317 0001152  81.9793 336.4587 14.38994215245395
